{"type": "FeatureCollection", "features": [ {"type": "Feature", "properties": {"norad_id": 66530, "name": "STARLINK-35961", "group": "last-30-days", "lat": -39.18025145006187, "lon": -32.27657580120998, "alt_km": 382.30657791893645, "timestamp": "2025-12-07T03:52:31.203797+00:00", "meta": {"OBJECT_NAME": "STARLINK-35961", "OBJECT_ID": "2025-265Q", "EPOCH": "2025-12-06T14:00:01.999872", "MEAN_MOTION": 15.65137115, "ECCENTRICITY": 0.00011703, "INCLINATION": 43.0002, "RA_OF_ASC_NODE": 90.1744, "ARG_OF_PERICENTER": 279.0171, "MEAN_ANOMALY": 310.1807, "EPHEMERIS_TYPE": 0, "CLASSIFICATION_TYPE": "U", "NORAD_CAT_ID": 66530, "ELEMENT_SET_NO": 999, "REV_AT_EPOCH": 400, "BSTAR": -0.022269401, "MEAN_MOTION_DOT": -0.01990847, "MEAN_MOTION_DDOT": 0}, "tle": {"line1": "1 66530U 25265Q   25340.58335648 -.01990847  00000+0 -22269-1 0  9997", "line2": "2 66530  43.0002  90.1744 0001170 279.0171 310.1807 15.65137115  4001"}}, "geometry": {"type": "Point", "coordinates": [-32.27657580120998, -39.18025145006187]}}, {"type": "Feature", "properties": {"norad_id": 66531, "name": "STARLINK-35960", "group": "last-30-days", "lat": -39.790309405704114, "lon": -29.927255826910713, "alt_km": 382.23981634690244, "timestamp": "2025-12-07T03:52:31.203810+00:00", "meta": {"OBJECT_NAME": "STARLINK-35960", "OBJECT_ID": "2025-265R", "EPOCH": "2025-12-06T14:00:01.999872", "MEAN_MOTION": 15.65138185, "ECCENTRICITY": 0.00011919, "INCLINATION": 43.0004, "RA_OF_ASC_NODE": 90.1695, "ARG_OF_PERICENTER": 274.6575, "MEAN_ANOMALY": 316.4573, "EPHEMERIS_TYPE": 0, "CLASSIFICATION_TYPE": "U", "NORAD_CAT_ID": 66531, "ELEMENT_SET_NO": 999, "REV_AT_EPOCH": 400, "BSTAR": -0.022282938, "MEAN_MOTION_DOT": -0.01992002, "MEAN_MOTION_DDOT": 0}, "tle": {"line1": "1 66531U 25265R   25340.58335648 -.01992002  00000+0 -22283-1 0  9999", "line2": "2 66531  43.0004  90.1695 0001191 274.6575 316.4573 15.65138185  4008"}}, "geometry": {"type": "Point", "coordinates": [-29.927255826910713, -39.790309405704114]}}, {"type": "Feature", "properties": {"norad_id": 66532, "name": "STARLINK-35914", "group": "last-30-days", "lat": -40.35081898936725, "lon": -27.54138869344017, "alt_km": 382.2430731596087, "timestamp": "2025-12-07T03:52:31.203820+00:00", "meta": {"OBJECT_NAME": "STARLINK-35914", "OBJECT_ID": "2025-265S", "EPOCH": "2025-12-06T14:00:01.999872", "MEAN_MOTION": 15.65133196, "ECCENTRICITY": 0.00012549, "INCLINATION": 43.0003, "RA_OF_ASC_NODE": 90.1646, "ARG_OF_PERICENTER": 277.9145, "MEAN_ANOMALY": 315.1196, "EPHEMERIS_TYPE": 0, "CLASSIFICATION_TYPE": "U", "NORAD_CAT_ID": 66532, "ELEMENT_SET_NO": 999, "REV_AT_EPOCH": 400, "BSTAR": -0.022213505, "MEAN_MOTION_DOT": -0.01986242, "MEAN_MOTION_DDOT": 0}, "tle": {"line1": "1 66532U 25265S   25340.58335648 -.01986242  00000+0 -22214-1 0  9993", "line2": "2 66532  43.0003  90.1646 0001254 277.9145 315.1196 15.65133196  4007"}}, "geometry": {"type": "Point", "coordinates": [-27.54138869344017, -40.35081898936725]}}, {"type": "Feature", "properties": {"norad_id": 66533, "name": "STARLINK-35707", "group": "last-30-days", "lat": -40.86176445317716, "lon": -25.11483945995906, "alt_km": 382.2279524717869, "timestamp": "2025-12-07T03:52:31.203830+00:00", "meta": {"OBJECT_NAME": "STARLINK-35707", "OBJECT_ID": "2025-265T", "EPOCH": "2025-12-06T14:00:01.999872", "MEAN_MOTION": 15.65137253, "ECCENTRICITY": 0.00012519, "INCLINATION": 43.0002, "RA_OF_ASC_NODE": 90.1598, "ARG_OF_PERICENTER": 275.9526, "MEAN_ANOMALY": 318.9969, "EPHEMERIS_TYPE": 0, "CLASSIFICATION_TYPE": "U", "NORAD_CAT_ID": 66533, "ELEMENT_SET_NO": 999, "REV_AT_EPOCH": 400, "BSTAR": -0.022272091, "MEAN_MOTION_DOT": -0.0199113, "MEAN_MOTION_DDOT": 0}, "tle": {"line1": "1 66533U 25265T   25340.58335648 -.01991130  00000+0 -22272-1 0  9990", "line2": "2 66533  43.0002  90.1598 0001251 275.9526 318.9969 15.65137253  4008"}}, "geometry": {"type": "Point", "coordinates": [-25.11483945995906, -40.86176445317716]}}, {"type": "Feature", "properties": {"norad_id": 66534, "name": "STARLINK-35976", "group": "last-30-days", "lat": -41.32099775134917, "lon": -22.652350558842006, "alt_km": 382.24083077274645, "timestamp": "2025-12-07T03:52:31.203840+00:00", "meta": {"OBJECT_NAME": "STARLINK-35976", "OBJECT_ID": "2025-265U", "EPOCH": "2025-12-06T14:00:01.999872", "MEAN_MOTION": 15.65135357, "ECCENTRICITY": 0.00012423, "INCLINATION": 43.0003, "RA_OF_ASC_NODE": 90.1556, "ARG_OF_PERICENTER": 276.7961, "MEAN_ANOMALY": 320.0708, "EPHEMERIS_TYPE": 0, "CLASSIFICATION_TYPE": "U", "NORAD_CAT_ID": 66534, "ELEMENT_SET_NO": 999, "REV_AT_EPOCH": 400, "BSTAR": -0.022237628, "MEAN_MOTION_DOT": -0.01988281, "MEAN_MOTION_DDOT": 0}, "tle": {"line1": "1 66534U 25265U   25340.58335648 -.01988281  00000+0 -22238-1 0  9996", "line2": "2 66534  43.0003  90.1556 0001242 276.7961 320.0708 15.65135357  4004"}}, "geometry": {"type": "Point", "coordinates": [-22.652350558842006, -41.32099775134917]}}, {"type": "Feature", "properties": {"norad_id": 66535, "name": "STARLINK-35514", "group": "last-30-days", "lat": -41.72636824242778, "lon": -20.15943495854385, "alt_km": 382.22740003279705, "timestamp": "2025-12-07T03:52:31.203855+00:00", "meta": {"OBJECT_NAME": "STARLINK-35514", "OBJECT_ID": "2025-265V", "EPOCH": "2025-12-06T14:00:01.999872", "MEAN_MOTION": 15.65136329, "ECCENTRICITY": 0.00012833, "INCLINATION": 43.0002, "RA_OF_ASC_NODE": 90.1508, "ARG_OF_PERICENTER": 277.9192, "MEAN_ANOMALY": 320.8632, "EPHEMERIS_TYPE": 0, "CLASSIFICATION_TYPE": "U", "NORAD_CAT_ID": 66535, "ELEMENT_SET_NO": 999, "REV_AT_EPOCH": 400, "BSTAR": -0.022246796, "MEAN_MOTION_DOT": -0.01989101, "MEAN_MOTION_DDOT": 0}, "tle": {"line1": "1 66535U 25265V   25340.58335648 -.01989101  00000+0 -22247-1 0  9999", "line2": "2 66535  43.0002  90.1508 0001283 277.9192 320.8632 15.65136329  4009"}}, "geometry": {"type": "Point", "coordinates": [-20.15943495854385, -41.72636824242778]}}, {"type": "Feature", "properties": {"norad_id": 66536, "name": "STARLINK-35640", "group": "last-30-days", "lat": -42.07748639720438, "lon": -17.634079020793237, "alt_km": 382.223167500174, "timestamp": "2025-12-07T03:52:31.203870+00:00", "meta": {"OBJECT_NAME": "STARLINK-35640", "OBJECT_ID": "2025-265W", "EPOCH": "2025-12-06T14:00:01.999872", "MEAN_MOTION": 15.65137261, "ECCENTRICITY": 0.00012687, "INCLINATION": 43.0002, "RA_OF_ASC_NODE": 90.1458, "ARG_OF_PERICENTER": 276.7297, "MEAN_ANOMALY": 323.9699, "EPHEMERIS_TYPE": 0, "CLASSIFICATION_TYPE": "U", "NORAD_CAT_ID": 66536, "ELEMENT_SET_NO": 999, "REV_AT_EPOCH": 398, "BSTAR": -0.022259959, "MEAN_MOTION_DOT": -0.0199019, "MEAN_MOTION_DDOT": 0}, "tle": {"line1": "1 66536U 25265W   25340.58335648 -.01990190  00000+0 -22260-1 0  9995", "line2": "2 66536  43.0002  90.1458 0001268 276.7297 323.9699 15.65137261  3989"}}, "geometry": {"type": "Point", "coordinates": [-17.634079020793237, -42.07748639720438]}}, {"type": "Feature", "properties": {"norad_id": 66537, "name": "STARLINK-35582", "group": "last-30-days", "lat": -42.37281834842604, "lon": -15.082033999874282, "alt_km": 382.190648440318, "timestamp": "2025-12-07T03:52:31.203883+00:00", "meta": {"OBJECT_NAME": "STARLINK-35582", "OBJECT_ID": "2025-265X", "EPOCH": "2025-12-06T14:00:01.999872", "MEAN_MOTION": 15.65135057, "ECCENTRICITY": 0.00012851, "INCLINATION": 43.0005, "RA_OF_ASC_NODE": 90.1408, "ARG_OF_PERICENTER": 275.8167, "MEAN_ANOMALY": 326.7997, "EPHEMERIS_TYPE": 0, "CLASSIFICATION_TYPE": "U", "NORAD_CAT_ID": 66537, "ELEMENT_SET_NO": 999, "REV_AT_EPOCH": 400, "BSTAR": -0.022206694, "MEAN_MOTION_DOT": -0.0198586, "MEAN_MOTION_DDOT": 0}, "tle": {"line1": "1 66537U 25265X   25340.58335648 -.01985860  00000+0 -22207-1 0  9995", "line2": "2 66537  43.0005  90.1408 0001285 275.8167 326.7997 15.65135057  4000"}}, "geometry": {"type": "Point", "coordinates": [-15.082033999874282, -42.37281834842604]}}, {"type": "Feature", "properties": {"norad_id": 66538, "name": "STARLINK-35577", "group": "last-30-days", "lat": -42.610241692767914, "lon": -12.511925988772841, "alt_km": 382.17668256739216, "timestamp": "2025-12-07T03:52:31.203918+00:00", "meta": {"OBJECT_NAME": "STARLINK-35577", "OBJECT_ID": "2025-265Y", "EPOCH": "2025-12-06T14:00:01.999872", "MEAN_MOTION": 15.65134453, "ECCENTRICITY": 0.00013239, "INCLINATION": 43.0005, "RA_OF_ASC_NODE": 90.1357, "ARG_OF_PERICENTER": 277.6213, "MEAN_ANOMALY": 326.9121, "EPHEMERIS_TYPE": 0, "CLASSIFICATION_TYPE": "U", "NORAD_CAT_ID": 66538, "ELEMENT_SET_NO": 999, "REV_AT_EPOCH": 400, "BSTAR": -0.022197059, "MEAN_MOTION_DOT": -0.0198509, "MEAN_MOTION_DDOT": 0}, "tle": {"line1": "1 66538U 25265Y   25340.58335648 -.01985090  00000+0 -22197-1 0  9999", "line2": "2 66538  43.0005  90.1357 0001323 277.6213 326.9121 15.65134453  4009"}}, "geometry": {"type": "Point", "coordinates": [-12.511925988772841, -42.610241692767914]}}, {"type": "Feature", "properties": {"norad_id": 66539, "name": "STARLINK-35697", "group": "last-30-days", "lat": -42.78951706577999, "lon": -9.923864718429916, "alt_km": 382.1960360386083, "timestamp": "2025-12-07T03:52:31.203929+00:00", "meta": {"OBJECT_NAME": "STARLINK-35697", "OBJECT_ID": "2025-265Z", "EPOCH": "2025-12-06T14:00:01.999872", "MEAN_MOTION": 15.65136685, "ECCENTRICITY": 0.00012916, "INCLINATION": 43.0004, "RA_OF_ASC_NODE": 90.1308, "ARG_OF_PERICENTER": 277.4648, "MEAN_ANOMALY": 328.9846, "EPHEMERIS_TYPE": 0, "CLASSIFICATION_TYPE": "U", "NORAD_CAT_ID": 66539, "ELEMENT_SET_NO": 999, "REV_AT_EPOCH": 400, "BSTAR": -0.022233766, "MEAN_MOTION_DOT": -0.01988108, "MEAN_MOTION_DDOT": 0}, "tle": {"line1": "1 66539U 25265Z   25340.58335648 -.01988108  00000+0 -22234-1 0  9995", "line2": "2 66539  43.0004  90.1308 0001291 277.4648 328.9846 15.65136685  4004"}}, "geometry": {"type": "Point", "coordinates": [-9.923864718429916, -42.78951706577999]}}]}